ONEWEB-0577             
1 56066U 23043W   26046.01681220  .00000153  00000+0  36686-3 0  9993
2 56066  87.9001 253.0859 0001426  60.7264 299.4010 13.16594576142919
ONEWEB-0578             
1 56067U 23043X   26046.15635190  .00000053  00000+0  96766-4 0  9999
2 56067  87.9178 268.3143 0001852  85.2079 274.9267 13.21825774142116
ONEWEB-0579             
1 56068U 23043Y   26046.14647459 -.00000006  00000+0 -45386-4 0  9992
2 56068  87.9184 268.3056 0001352  94.5482 265.5807 13.21824451142121
ONEWEB-0581             
1 56069U 23043Z   26046.09915554 -.00000395  00000+0 -10671-2 0  9999
2 56069  87.8997 253.0812 0001369  69.9400 290.1878 13.16598392142890
ONEWEB-0609             
1 56070U 23043AA  26046.18779862  .00000110  00000+0  25778-3 0  9999
2 56070  87.8972 283.5775 0001606  88.6583 271.4732 13.15549247140393
ONEWEB-0613             
1 56071U 23043AB  26046.18304717  .00000107  00000+0  25057-3 0  9999
2 56071  87.8969 283.5894 0001425  95.3927 264.7366 13.15549461140394
ONEWEB-0630             
1 56072U 23043AC  26046.17827854 -.00000183  00000+0 -51961-3 0  9990
2 56072  87.8966 283.5606 0001350  96.5835 263.5449 13.15548737140384
ONEWEB-0632             
1 56073U 23043AD  26046.17353641  .00000112  00000+0  26428-3 0  9999
2 56073  87.8967 283.5783 0001433  77.5872 282.5418 13.15549425140386
ONEWEB-0633             
1 56074U 23043AE  26046.16720285  .00000111  00000+0  26150-3 0  9992
2 56074  87.8977 283.5450 0001493 100.1157 260.0142 13.15550318140360
ONEWEB-0634             
1 56075U 23043AF  26046.15293706 -.00000064  00000+0 -20504-3 0  9991
2 56075  87.8973 283.5988 0001861  88.0396 272.0948 13.15549453140355
ONEWEB-0635             
1 56076U 23043AG  26046.14817810 -.00000085  00000+0 -25990-3 0  9996
2 56076  87.8975 283.5526 0001426  73.6059 286.5229 13.15549031140386
ONEWEB-0636             
1 56077U 23043AH  26046.14025713 -.00000110  00000+0 -32698-3 0  9992
2 56077  87.8970 283.5697 0001468  75.4940 284.6353 13.15549266140361
ONEWEB-0637             
1 56078U 23043AJ  26046.20999289  .00000021  00000+0  21172-4 0  9993
2 56078  87.8970 283.5730 0001739  75.8260 284.3064 13.15549951140390
ONEWEB-0647             
1 56079U 23043AK  26046.20522701  .00000012  00000+0 -17675-5 0  9990
2 56079  87.8969 283.5870 0001397  83.3680 276.7609 13.15549942140383
ONEWEB-0651             
1 56080U 23043AL  26046.20047491  .00000051  00000+0  10166-3 0  9998
2 56080  87.8970 283.5828 0001571  75.8940 284.2365 13.15549661141583
ONEWEB-0718             
1 56081U 23043AM  26046.19570756  .00000071  00000+0  15578-3 0  9996
2 56081  87.8968 283.5637 0002009  90.8376 269.2984 13.15546531140397
