[{"OBJECT_NAME":"ONEWEB-0577","OBJECT_ID":"2023-043W","EPOCH":"2026-02-15T00:24:12.574080","MEAN_MOTION":13.16594576,"ECCENTRICITY":0.00014265,"INCLINATION":87.9001,"RA_OF_ASC_NODE":253.0859,"ARG_OF_PERICENTER":60.7264,"MEAN_ANOMALY":299.401,"EPHEMERIS_TYPE":0,"CLASSIFICATION_TYPE":"U","NORAD_CAT_ID":56066,"ELEMENT_SET_NO":999,"REV_AT_EPOCH":14291,"BSTAR":0.00036685727,"MEAN_MOTION_DOT":1.53e-6,"MEAN_MOTION_DDOT":0},{"OBJECT_NAME":"ONEWEB-0578","OBJECT_ID":"2023-043X","EPOCH":"2026-02-15T03:45:08.804160","MEAN_MOTION":13.21825774,"ECCENTRICITY":0.00018525,"INCLINATION":87.9178,"RA_OF_ASC_NODE":268.3143,"ARG_OF_PERICENTER":85.2079,"MEAN_ANOMALY":274.9267,"EPHEMERIS_TYPE":0,"CLASSIFICATION_TYPE":"U","NORAD_CAT_ID":56067,"ELEMENT_SET_NO":999,"REV_AT_EPOCH":14211,"BSTAR":9.6766454e-5,"MEAN_MOTION_DOT":5.3e-7,"MEAN_MOTION_DDOT":0},{"OBJECT_NAME":"ONEWEB-0579","OBJECT_ID":"2023-043Y","EPOCH":"2026-02-15T03:30:55.404576","MEAN_MOTION":13.21824451,"ECCENTRICITY":0.00013528,"INCLINATION":87.9184,"RA_OF_ASC_NODE":268.3056,"ARG_OF_PERICENTER":94.5482,"MEAN_ANOMALY":265.5807,"EPHEMERIS_TYPE":0,"CLASSIFICATION_TYPE":"U","NORAD_CAT_ID":56068,"ELEMENT_SET_NO":999,"REV_AT_EPOCH":14212,"BSTAR":-4.5385774e-5,"MEAN_MOTION_DOT":-6.0e-8,"MEAN_MOTION_DDOT":0},{"OBJECT_NAME":"ONEWEB-0581","OBJECT_ID":"2023-043Z","EPOCH":"2026-02-15T02:22:47.038656","MEAN_MOTION":13.16598392,"ECCENTRICITY":0.00013692,"INCLINATION":87.8997,"RA_OF_ASC_NODE":253.0812,"ARG_OF_PERICENTER":69.94,"MEAN_ANOMALY":290.1878,"EPHEMERIS_TYPE":0,"CLASSIFICATION_TYPE":"U","NORAD_CAT_ID":56069,"ELEMENT_SET_NO":999,"REV_AT_EPOCH":14289,"BSTAR":-0.0010671253,"MEAN_MOTION_DOT":-3.95e-6,"MEAN_MOTION_DDOT":0},{"OBJECT_NAME":"ONEWEB-0609","OBJECT_ID":"2023-043AA","EPOCH":"2026-02-15T04:30:25.800768","MEAN_MOTION":13.15549247,"ECCENTRICITY":0.00016067,"INCLINATION":87.8972,"RA_OF_ASC_NODE":283.5775,"ARG_OF_PERICENTER":88.6583,"MEAN_ANOMALY":271.4732,"EPHEMERIS_TYPE":0,"CLASSIFICATION_TYPE":"U","NORAD_CAT_ID":56070,"ELEMENT_SET_NO":999,"REV_AT_EPOCH":14039,"BSTAR":0.00025778242,"MEAN_MOTION_DOT":1.1e-6,"MEAN_MOTION_DDOT":0},{"OBJECT_NAME":"ONEWEB-0613","OBJECT_ID":"2023-043AB","EPOCH":"2026-02-15T04:23:35.275488","MEAN_MOTION":13.15549461,"ECCENTRICITY":0.0001425,"INCLINATION":87.8969,"RA_OF_ASC_NODE":283.5894,"ARG_OF_PERICENTER":95.3927,"MEAN_ANOMALY":264.7366,"EPHEMERIS_TYPE":0,"CLASSIFICATION_TYPE":"U","NORAD_CAT_ID":56071,"ELEMENT_SET_NO":999,"REV_AT_EPOCH":14039,"BSTAR":0.00025056788,"MEAN_MOTION_DOT":1.07e-6,"MEAN_MOTION_DDOT":0},{"OBJECT_NAME":"ONEWEB-0630","OBJECT_ID":"2023-043AC","EPOCH":"2026-02-15T04:16:43.265856","MEAN_MOTION":13.15548737,"ECCENTRICITY":0.00013504,"INCLINATION":87.8966,"RA_OF_ASC_NODE":283.5606,"ARG_OF_PERICENTER":96.5835,"MEAN_ANOMALY":263.5449,"EPHEMERIS_TYPE":0,"CLASSIFICATION_TYPE":"U","NORAD_CAT_ID":56072,"ELEMENT_SET_NO":999,"REV_AT_EPOCH":14038,"BSTAR":-0.00051960842,"MEAN_MOTION_DOT":-1.83e-6,"MEAN_MOTION_DDOT":0},{"OBJECT_NAME":"ONEWEB-0632","OBJECT_ID":"2023-043AD","EPOCH":"2026-02-15T04:09:53.545824","MEAN_MOTION":13.15549425,"ECCENTRICITY":0.00014332,"INCLINATION":87.8967,"RA_OF_ASC_NODE":283.5783,"ARG_OF_PERICENTER":77.5872,"MEAN_ANOMALY":282.5418,"EPHEMERIS_TYPE":0,"CLASSIFICATION_TYPE":"U","NORAD_CAT_ID":56073,"ELEMENT_SET_NO":999,"REV_AT_EPOCH":14038,"BSTAR":0.00026428103,"MEAN_MOTION_DOT":1.12e-6,"MEAN_MOTION_DDOT":0},{"OBJECT_NAME":"ONEWEB-0633","OBJECT_ID":"2023-043AE","EPOCH":"2026-02-15T04:00:46.326240","MEAN_MOTION":13.15550318,"ECCENTRICITY":0.00014934,"INCLINATION":87.8977,"RA_OF_ASC_NODE":283.545,"ARG_OF_PERICENTER":100.1157,"MEAN_ANOMALY":260.0142,"EPHEMERIS_TYPE":0,"CLASSIFICATION_TYPE":"U","NORAD_CAT_ID":56074,"ELEMENT_SET_NO":999,"REV_AT_EPOCH":14036,"BSTAR":0.00026149694,"MEAN_MOTION_DOT":1.11e-6,"MEAN_MOTION_DDOT":0},{"OBJECT_NAME":"ONEWEB-0634","OBJECT_ID":"2023-043AF","EPOCH":"2026-02-15T03:40:13.761984","MEAN_MOTION":13.15549453,"ECCENTRICITY":0.00018617,"INCLINATION":87.8973,"RA_OF_ASC_NODE":283.5988,"ARG_OF_PERICENTER":88.0396,"MEAN_ANOMALY":272.0948,"EPHEMERIS_TYPE":0,"CLASSIFICATION_TYPE":"U","NORAD_CAT_ID":56075,"ELEMENT_SET_NO":999,"REV_AT_EPOCH":14035,"BSTAR":-0.00020504299,"MEAN_MOTION_DOT":-6.4e-7,"MEAN_MOTION_DDOT":0},{"OBJECT_NAME":"ONEWEB-0635","OBJECT_ID":"2023-043AG","EPOCH":"2026-02-15T03:33:22.587840","MEAN_MOTION":13.15549031,"ECCENTRICITY":0.00014261,"INCLINATION":87.8975,"RA_OF_ASC_NODE":283.5526,"ARG_OF_PERICENTER":73.6059,"MEAN_ANOMALY":286.5229,"EPHEMERIS_TYPE":0,"CLASSIFICATION_TYPE":"U","NORAD_CAT_ID":56076,"ELEMENT_SET_NO":999,"REV_AT_EPOCH":14038,"BSTAR":-0.0002599005,"MEAN_MOTION_DOT":-8.5e-7,"MEAN_MOTION_DDOT":0},{"OBJECT_NAME":"ONEWEB-0636","OBJECT_ID":"2023-043AH","EPOCH":"2026-02-15T03:21:58.216032","MEAN_MOTION":13.15549266,"ECCENTRICITY":0.00014683,"INCLINATION":87.897,"RA_OF_ASC_NODE":283.5697,"ARG_OF_PERICENTER":75.494,"MEAN_ANOMALY":284.6353,"EPHEMERIS_TYPE":0,"CLASSIFICATION_TYPE":"U","NORAD_CAT_ID":56077,"ELEMENT_SET_NO":999,"REV_AT_EPOCH":14036,"BSTAR":-0.00032697625,"MEAN_MOTION_DOT":-1.1e-6,"MEAN_MOTION_DDOT":0},{"OBJECT_NAME":"ONEWEB-0637","OBJECT_ID":"2023-043AJ","EPOCH":"2026-02-15T05:02:23.385696","MEAN_MOTION":13.15549951,"ECCENTRICITY":0.00017397,"INCLINATION":87.897,"RA_OF_ASC_NODE":283.573,"ARG_OF_PERICENTER":75.826,"MEAN_ANOMALY":284.3064,"EPHEMERIS_TYPE":0,"CLASSIFICATION_TYPE":"U","NORAD_CAT_ID":56078,"ELEMENT_SET_NO":999,"REV_AT_EPOCH":14039,"BSTAR":2.117218e-5,"MEAN_MOTION_DOT":2.1e-7,"MEAN_MOTION_DDOT":0},{"OBJECT_NAME":"ONEWEB-0647","OBJECT_ID":"2023-043AK","EPOCH":"2026-02-15T04:55:31.613664","MEAN_MOTION":13.15549942,"ECCENTRICITY":0.00013977,"INCLINATION":87.8969,"RA_OF_ASC_NODE":283.587,"ARG_OF_PERICENTER":83.368,"MEAN_ANOMALY":276.7609,"EPHEMERIS_TYPE":0,"CLASSIFICATION_TYPE":"U","NORAD_CAT_ID":56079,"ELEMENT_SET_NO":999,"REV_AT_EPOCH":14038,"BSTAR":-1.767519e-6,"MEAN_MOTION_DOT":1.2e-7,"MEAN_MOTION_DDOT":0},{"OBJECT_NAME":"ONEWEB-0651","OBJECT_ID":"2023-043AL","EPOCH":"2026-02-15T04:48:41.032224","MEAN_MOTION":13.15549661,"ECCENTRICITY":0.00015713,"INCLINATION":87.897,"RA_OF_ASC_NODE":283.5828,"ARG_OF_PERICENTER":75.894,"MEAN_ANOMALY":284.2365,"EPHEMERIS_TYPE":0,"CLASSIFICATION_TYPE":"U","NORAD_CAT_ID":56080,"ELEMENT_SET_NO":999,"REV_AT_EPOCH":14158,"BSTAR":0.00010165793,"MEAN_MOTION_DOT":5.1e-7,"MEAN_MOTION_DDOT":0},{"OBJECT_NAME":"ONEWEB-0718","OBJECT_ID":"2023-043AM","EPOCH":"2026-02-15T04:41:49.133184","MEAN_MOTION":13.15546531,"ECCENTRICITY":0.00020099,"INCLINATION":87.8968,"RA_OF_ASC_NODE":283.5637,"ARG_OF_PERICENTER":90.8376,"MEAN_ANOMALY":269.2984,"EPHEMERIS_TYPE":0,"CLASSIFICATION_TYPE":"U","NORAD_CAT_ID":56081,"ELEMENT_SET_NO":999,"REV_AT_EPOCH":14039,"BSTAR":0.00015578148,"MEAN_MOTION_DOT":7.1e-7,"MEAN_MOTION_DDOT":0}]
